[{"OBJECT_NAME":"STARLINK-6335","OBJECT_ID":"2023-065AA","EPOCH":"2026-03-09T10:45:54.897984","MEAN_MOTION":15.0253628,"ECCENTRICITY":0.00012012,"INCLINATION":43.0007,"RA_OF_ASC_NODE":211.1962,"ARG_OF_PERICENTER":265.9221,"MEAN_ANOMALY":94.1484,"EPHEMERIS_TYPE":0,"CLASSIFICATION_TYPE":"U","NORAD_CAT_ID":56527,"ELEMENT_SET_NO":999,"REV_AT_EPOCH":15659,"BSTAR":2.1691602e-5,"MEAN_MOTION_DOT":8.9e-7,"MEAN_MOTION_DDOT":0},{"OBJECT_NAME":"FTV 3502","OBJECT_ID":"1962-039A","EPOCH":"2026-03-09T21:41:26.705184","MEAN_MOTION":14.91961609,"ECCENTRICITY":0.00806549,"INCLINATION":98.4622,"RA_OF_ASC_NODE":145.9901,"ARG_OF_PERICENTER":91.4356,"MEAN_ANOMALY":269.6102,"EPHEMERIS_TYPE":0,"CLASSIFICATION_TYPE":"U","NORAD_CAT_ID":369,"ELEMENT_SET_NO":999,"REV_AT_EPOCH":40080,"BSTAR":0.00025514942,"MEAN_MOTION_DOT":2.681e-5,"MEAN_MOTION_DDOT":0}]
